NOAA 15                 
1 25338U 98030A   25068.88460189  .00000339  00000+0  15740-3 0  9990
2 25338  98.5459  96.1816 0009117 266.8558  93.1580 14.26903753395072
NOAA 18                 
1 28654U 05018A   25068.88880005  .00000358  00000+0  21318-3 0  9990
2 28654  98.8472 149.3856 0014505  33.9438 326.2660 14.13536521 20712
NOAA 19                 
1 33591U 09005A   25068.88023584  .00000339  00000+0  20511-3 0  9990
2 33591  99.0084 133.0333 0012813 261.5885  98.3835 14.13304126828895
METOP-B                 
1 38771U 12049A   25068.89145240  .00000271  00000+0  14372-3 0  9995
2 38771  98.5902 125.6365 0000451 127.5367 232.5852 14.21447640647300
SARAL                   
1 39086U 13009A   25068.91217013  .00000266  00000+0  11378-3 0  9990
2 39086  98.5533 256.4502 0001494 185.1678 174.9491 14.32674230629126
METOP-C                 
1 43689U 18087A   25068.85791208  .00000261  00000+0  13928-3 0  9999
2 43689  98.6855 130.5218 0002143  75.2487 284.8928 14.21482851328860
ANGELS                  
1 44876U 19092D   25068.59883401  .00042175  00000+0  11272-2 0  9992
2 44876  97.4637 265.0391 0008083  98.5179 261.6982 15.37927051289970
OTB-3-GAZELLE           
1 54023U 22127A   25068.89662513  .00000360  00000+0  12161-3 0  9991
2 54023  98.3641  63.6436 0013903 145.0670 215.1435 14.42430601127426
EOS-6 (OCEANSAT-3)      
1 54361U 22158A   25068.89587753  .00000783  00000+0  22741-3 0  9996
2 54361  98.3480 168.3554 0000893  65.1440 294.9845 14.46988355120697
