[{"OBJECT_NAME":"NOAA 15","OBJECT_ID":"1998-030A","EPOCH":"2025-03-09T21:13:49.603296","MEAN_MOTION":14.26903753,"ECCENTRICITY":0.0009117,"INCLINATION":98.5459,"RA_OF_ASC_NODE":96.1816,"ARG_OF_PERICENTER":266.8558,"MEAN_ANOMALY":93.158,"EPHEMERIS_TYPE":0,"CLASSIFICATION_TYPE":"U","NORAD_CAT_ID":25338,"ELEMENT_SET_NO":999,"REV_AT_EPOCH":39507,"BSTAR":0.0001574,"MEAN_MOTION_DOT":3.39e-6,"MEAN_MOTION_DDOT":0},{"OBJECT_NAME":"NOAA 18","OBJECT_ID":"2005-018A","EPOCH":"2025-03-09T21:19:52.324320","MEAN_MOTION":14.13536521,"ECCENTRICITY":0.0014505,"INCLINATION":98.8472,"RA_OF_ASC_NODE":149.3856,"ARG_OF_PERICENTER":33.9438,"MEAN_ANOMALY":326.266,"EPHEMERIS_TYPE":0,"CLASSIFICATION_TYPE":"U","NORAD_CAT_ID":28654,"ELEMENT_SET_NO":999,"REV_AT_EPOCH":2071,"BSTAR":0.00021318,"MEAN_MOTION_DOT":3.58e-6,"MEAN_MOTION_DDOT":0},{"OBJECT_NAME":"NOAA 19","OBJECT_ID":"2009-005A","EPOCH":"2025-03-09T21:07:32.376576","MEAN_MOTION":14.13304126,"ECCENTRICITY":0.0012813,"INCLINATION":99.0084,"RA_OF_ASC_NODE":133.0333,"ARG_OF_PERICENTER":261.5885,"MEAN_ANOMALY":98.3835,"EPHEMERIS_TYPE":0,"CLASSIFICATION_TYPE":"U","NORAD_CAT_ID":33591,"ELEMENT_SET_NO":999,"REV_AT_EPOCH":82889,"BSTAR":0.00020511,"MEAN_MOTION_DOT":3.39e-6,"MEAN_MOTION_DDOT":0},{"OBJECT_NAME":"METOP-B","OBJECT_ID":"2012-049A","EPOCH":"2025-03-09T21:23:41.487360","MEAN_MOTION":14.2144764,"ECCENTRICITY":4.51e-5,"INCLINATION":98.5902,"RA_OF_ASC_NODE":125.6365,"ARG_OF_PERICENTER":127.5367,"MEAN_ANOMALY":232.5852,"EPHEMERIS_TYPE":0,"CLASSIFICATION_TYPE":"U","NORAD_CAT_ID":38771,"ELEMENT_SET_NO":999,"REV_AT_EPOCH":64730,"BSTAR":0.00014372,"MEAN_MOTION_DOT":2.71e-6,"MEAN_MOTION_DDOT":0},{"OBJECT_NAME":"SARAL","OBJECT_ID":"2013-009A","EPOCH":"2025-03-09T21:53:31.499232","MEAN_MOTION":14.3267423,"ECCENTRICITY":0.0001494,"INCLINATION":98.5533,"RA_OF_ASC_NODE":256.4502,"ARG_OF_PERICENTER":185.1678,"MEAN_ANOMALY":174.9491,"EPHEMERIS_TYPE":0,"CLASSIFICATION_TYPE":"U","NORAD_CAT_ID":39086,"ELEMENT_SET_NO":999,"REV_AT_EPOCH":62912,"BSTAR":0.00011378,"MEAN_MOTION_DOT":2.66e-6,"MEAN_MOTION_DDOT":0},{"OBJECT_NAME":"METOP-C","OBJECT_ID":"2018-087A","EPOCH":"2025-03-09T20:35:23.603712","MEAN_MOTION":14.21482851,"ECCENTRICITY":0.0002143,"INCLINATION":98.6855,"RA_OF_ASC_NODE":130.5218,"ARG_OF_PERICENTER":75.2487,"MEAN_ANOMALY":284.8928,"EPHEMERIS_TYPE":0,"CLASSIFICATION_TYPE":"U","NORAD_CAT_ID":43689,"ELEMENT_SET_NO":999,"REV_AT_EPOCH":32886,"BSTAR":0.00013928,"MEAN_MOTION_DOT":2.61e-6,"MEAN_MOTION_DDOT":0},{"OBJECT_NAME":"ANGELS","OBJECT_ID":"2019-092D","EPOCH":"2025-03-09T14:22:19.258464","MEAN_MOTION":15.37927051,"ECCENTRICITY":0.0008083,"INCLINATION":97.4637,"RA_OF_ASC_NODE":265.0391,"ARG_OF_PERICENTER":98.5179,"MEAN_ANOMALY":261.6982,"EPHEMERIS_TYPE":0,"CLASSIFICATION_TYPE":"U","NORAD_CAT_ID":44876,"ELEMENT_SET_NO":999,"REV_AT_EPOCH":28997,"BSTAR":0.0011272,"MEAN_MOTION_DOT":0.00042175,"MEAN_MOTION_DDOT":0},{"OBJECT_NAME":"OTB-3-GAZELLE","OBJECT_ID":"2022-127A","EPOCH":"2025-03-09T21:31:08.411232","MEAN_MOTION":14.42430601,"ECCENTRICITY":0.0013903,"INCLINATION":98.3641,"RA_OF_ASC_NODE":63.6436,"ARG_OF_PERICENTER":145.067,"MEAN_ANOMALY":215.1435,"EPHEMERIS_TYPE":0,"CLASSIFICATION_TYPE":"U","NORAD_CAT_ID":54023,"ELEMENT_SET_NO":999,"REV_AT_EPOCH":12742,"BSTAR":0.00012161,"MEAN_MOTION_DOT":3.6e-6,"MEAN_MOTION_DDOT":0},{"OBJECT_NAME":"EOS-6 (OCEANSAT-3)","OBJECT_ID":"2022-158A","EPOCH":"2025-03-09T21:30:03.818592","MEAN_MOTION":14.46988355,"ECCENTRICITY":8.93e-5,"INCLINATION":98.348,"RA_OF_ASC_NODE":168.3554,"ARG_OF_PERICENTER":65.144,"MEAN_ANOMALY":294.9845,"EPHEMERIS_TYPE":0,"CLASSIFICATION_TYPE":"U","NORAD_CAT_ID":54361,"ELEMENT_SET_NO":999,"REV_AT_EPOCH":12069,"BSTAR":0.00022741,"MEAN_MOTION_DOT":7.83e-6,"MEAN_MOTION_DDOT":0}]
